{
  "type": "FeatureCollection",
  "features": [
    {
      "type": "Feature",
      "properties": {
        "norad_id": 37094,
        "name": "COSMOS 2251 DEB",
        "group": "cosmos-2251-debris",
        "lat": 12.211958304892331,
        "lon": -60.014830386807795,
        "alt_km": 753.0063015313808,
        "timestamp": "2025-12-11T10:53:16.287587+00:00",
        "meta_object_name": "COSMOS 2251 DEB",
        "meta_object_id": "1993-036BFQ",
        "meta_epoch": "2025-12-10T15:45:11.030688",
        "meta_mean_motion": 14.37808892,
        "meta_eccentricity": 0.0084108,
        "meta_inclination": 74.1091,
        "meta_ra_of_asc_node": 124.9809,
        "meta_arg_of_pericenter": 91.4784,
        "meta_mean_anomaly": 269.6007,
        "meta_ephemeris_type": 0,
        "meta_classification_type": "U",
        "meta_norad_cat_id": 37094,
        "meta_element_set_no": 999,
        "meta_rev_at_epoch": 84476,
        "meta_bstar": 0.0015212,
        "meta_mean_motion_dot": 4.753e-05,
        "meta_mean_motion_ddot": 0,
        "tle_line1": "1 37094U 93036BFQ 25344.65637767  .00004753  00000+0  15212-2 0  9990",
        "tle_line2": "2 37094  74.1091 124.9809 0084108  91.4784 269.6007 14.37808892844763"
      },
      "geometry": {
        "type": "Point",
        "coordinates": [
          -60.014830386807795,
          12.211958304892331
        ]
      }
    },
    {
      "type": "Feature",
      "properties": {
        "norad_id": 37095,
        "name": "COSMOS 2251 DEB",
        "group": "cosmos-2251-debris",
        "lat": -67.70323800843612,
        "lon": 57.14581519215829,
        "alt_km": 747.9879814465985,
        "timestamp": "2025-12-11T10:53:16.287597+00:00",
        "meta_object_name": "COSMOS 2251 DEB",
        "meta_object_id": "1993-036BFR",
        "meta_epoch": "2025-12-09T20:01:56.039232",
        "meta_mean_motion": 14.03378058,
        "meta_eccentricity": 0.01946745,
        "meta_inclination": 73.8479,
        "meta_ra_of_asc_node": 195.0272,
        "meta_arg_of_pericenter": 253.3329,
        "meta_mean_anomaly": 104.6357,
        "meta_ephemeris_type": 0,
        "meta_classification_type": "U",
        "meta_norad_cat_id": 37095,
        "meta_element_set_no": 999,
        "meta_rev_at_epoch": 62595,
        "meta_bstar": 0.002528344,
        "meta_mean_motion_dot": 4.65e-05,
        "meta_mean_motion_ddot": 0,
        "tle_line1": "1 37095U 93036BFR 25343.83467638  .00004650  00000+0  25283-2 0  9993",
        "tle_line2": "2 37095  73.8479 195.0272 0194674 253.3329 104.6357 14.03378058625950"
      },
      "geometry": {
        "type": "Point",
        "coordinates": [
          57.14581519215829,
          -67.70323800843612
        ]
      }
    },
    {
      "type": "Feature",
      "properties": {
        "norad_id": 37108,
        "name": "COSMOS 2251 DEB",
        "group": "cosmos-2251-debris",
        "lat": 55.36892739248085,
        "lon": -121.52569111555604,
        "alt_km": 697.5215099070228,
        "timestamp": "2025-12-11T10:53:16.287608+00:00",
        "meta_object_name": "COSMOS 2251 DEB",
        "meta_object_id": "1993-036BGE",
        "meta_epoch": "2025-12-09T23:20:35.191392",
        "meta_mean_motion": 14.41257744,
        "meta_eccentricity": 0.00916675,
        "meta_inclination": 74.0451,
        "meta_ra_of_asc_node": 85.6842,
        "meta_arg_of_pericenter": 163.0821,
        "meta_mean_anomaly": 197.3428,
        "meta_ephemeris_type": 0,
        "meta_classification_type": "U",
        "meta_norad_cat_id": 37108,
        "meta_element_set_no": 999,
        "meta_rev_at_epoch": 85467,
        "meta_bstar": 0.0022378901,
        "meta_mean_motion_dot": 7.583e-05,
        "meta_mean_motion_ddot": 0,
        "tle_line1": "1 37108U 93036BGE 25343.97262953  .00007583  00000+0  22379-2 0  9997",
        "tle_line2": "2 37108  74.0451  85.6842 0091667 163.0821 197.3428 14.41257744854678"
      },
      "geometry": {
        "type": "Point",
        "coordinates": [
          -121.52569111555604,
          55.36892739248085
        ]
      }
    },
    {
      "type": "Feature",
      "properties": {
        "norad_id": 37126,
        "name": "COSMOS 2251 DEB",
        "group": "cosmos-2251-debris",
        "lat": -50.603976514744694,
        "lon": -162.43451975626442,
        "alt_km": 571.2302892188718,
        "timestamp": "2025-12-11T10:53:16.287618+00:00",
        "meta_object_name": "COSMOS 2251 DEB",
        "meta_object_id": "1993-036BGY",
        "meta_epoch": "2025-12-10T07:44:48.551424",
        "meta_mean_motion": 14.73059683,
        "meta_eccentricity": 0.0123308,
        "meta_inclination": 73.9536,
        "meta_ra_of_asc_node": 359.2652,
        "meta_arg_of_pericenter": 237.9672,
        "meta_mean_anomaly": 120.9475,
        "meta_ephemeris_type": 0,
        "meta_classification_type": "U",
        "meta_norad_cat_id": 37126,
        "meta_element_set_no": 999,
        "meta_rev_at_epoch": 8063,
        "meta_bstar": 0.00038210319,
        "meta_mean_motion_dot": 2.735e-05,
        "meta_mean_motion_ddot": 0,
        "tle_line1": "1 37126U 93036BGY 25344.32278416  .00002735  00000+0  38210-3 0  9994",
        "tle_line2": "2 37126  73.9536 359.2652 0123308 237.9672 120.9475 14.73059683 80630"
      },
      "geometry": {
        "type": "Point",
        "coordinates": [
          -162.43451975626442,
          -50.603976514744694
        ]
      }
    },
    {
      "type": "Feature",
      "properties": {
        "norad_id": 37132,
        "name": "COSMOS 2251 DEB",
        "group": "cosmos-2251-debris",
        "lat": -73.1445059216833,
        "lon": 127.8163976324139,
        "alt_km": 660.381860467538,
        "timestamp": "2025-12-11T10:53:16.287628+00:00",
        "meta_object_name": "COSMOS 2251 DEB",
        "meta_object_id": "1993-036BHE",
        "meta_epoch": "2025-12-07T11:27:27.762624",
        "meta_mean_motion": 14.77705967,
        "meta_eccentricity": 0.0039737,
        "meta_inclination": 74.0029,
        "meta_ra_of_asc_node": 244.3909,
        "meta_arg_of_pericenter": 41.7313,
        "meta_mean_anomaly": 318.688,
        "meta_ephemeris_type": 0,
        "meta_classification_type": "U",
        "meta_norad_cat_id": 37132,
        "meta_element_set_no": 999,
        "meta_rev_at_epoch": 62338,
        "meta_bstar": 0.0017835716,
        "meta_mean_motion_dot": 0.00012942,
        "meta_mean_motion_ddot": 0,
        "tle_line1": "1 37132U 93036BHE 25341.47740466  .00012942  00000+0  17836-2 0  9994",
        "tle_line2": "2 37132  74.0029 244.3909 0039737  41.7313 318.6880 14.77705967623388"
      },
      "geometry": {
        "type": "Point",
        "coordinates": [
          127.8163976324139,
          -73.1445059216833
        ]
      }
    },
    {
      "type": "Feature",
      "properties": {
        "norad_id": 37270,
        "name": "COSMOS 2251 DEB",
        "group": "cosmos-2251-debris",
        "lat": -58.362635663752314,
        "lon": -174.1242407178009,
        "alt_km": 1122.5354935342439,
        "timestamp": "2025-12-11T10:53:16.287639+00:00",
        "meta_object_name": "COSMOS 2251 DEB",
        "meta_object_id": "1993-036BHJ",
        "meta_epoch": "2025-12-06T23:44:09.019392",
        "meta_mean_motion": 13.59708116,
        "meta_eccentricity": 0.03977945,
        "meta_inclination": 73.9304,
        "meta_ra_of_asc_node": 345.2655,
        "meta_arg_of_pericenter": 358.2371,
        "meta_mean_anomaly": 1.731,
        "meta_ephemeris_type": 0,
        "meta_classification_type": "U",
        "meta_norad_cat_id": 37270,
        "meta_element_set_no": 999,
        "meta_rev_at_epoch": 76991,
        "meta_bstar": 0.0060698053,
        "meta_mean_motion_dot": 7.585e-05,
        "meta_mean_motion_ddot": 0,
        "tle_line1": "1 37270U 93036BHJ 25340.98899328  .00007585  00000+0  60698-2 0  9995",
        "tle_line2": "2 37270  73.9304 345.2655 0397794 358.2371   1.7310 13.59708116769910"
      },
      "geometry": {
        "type": "Point",
        "coordinates": [
          -174.1242407178009,
          -58.362635663752314
        ]
      }
    },
    {
      "type": "Feature",
      "properties": {
        "norad_id": 37278,
        "name": "COSMOS 2251 DEB",
        "group": "cosmos-2251-debris",
        "lat": 13.523013847675212,
        "lon": -4.361450080131147,
        "alt_km": 1045.3166517274567,
        "timestamp": "2025-12-11T10:53:16.287649+00:00",
        "meta_object_name": "COSMOS 2251 DEB",
        "meta_object_id": "1993-036BHS",
        "meta_epoch": "2025-12-04T09:26:36.152736",
        "meta_mean_motion": 14.15029915,
        "meta_eccentricity": 0.029998,
        "meta_inclination": 73.7864,
        "meta_ra_of_asc_node": 4.3592,
        "meta_arg_of_pericenter": 188.2556,
        "meta_mean_anomaly": 234.4903,
        "meta_ephemeris_type": 0,
        "meta_classification_type": "U",
        "meta_norad_cat_id": 37278,
        "meta_element_set_no": 999,
        "meta_rev_at_epoch": 63711,
        "meta_bstar": 0.0023061,
        "meta_mean_motion_dot": 6.884e-05,
        "meta_mean_motion_ddot": 0,
        "tle_line1": "1 37278U 93036BHS 25338.39347399  .00006884  00000+0  23061-2 0  9995",
        "tle_line2": "2 37278  73.7864   4.3592 0299980 188.2556 234.4903 14.15029915637119"
      },
      "geometry": {
        "type": "Point",
        "coordinates": [
          -4.361450080131147,
          13.523013847675212
        ]
      }
    }
  ]
}